start=new Date('2022-03-05T00:00:00.000Z').valueOf();
sats=[{"TLE_LINE1":"1 46790U 20074BD  22063.70783210  .00000583  00000-0  58023-4 0  9998","TIME_SYSTEM":"UTC","OBJECT_TYPE":"PAYLOAD","MEAN_MOTION":"15.06393989","RCS_SIZE":"LARGE","ELEMENT_SET_NO":"999","MEAN_MOTION_DOT":"0.00000583","GP_ID":"197903735","ARG_OF_PERICENTER":"55.3254","SEMIMAJOR_AXIS":"6925.367","INCLINATION":"53.0562","COUNTRY_CODE":"US","MEAN_MOTION_DDOT":"0.0000000000000","REV_AT_EPOCH":"7571","BSTAR":"0.00005802300000","REF_FRAME":"TEME","APOAPSIS":"548.639","MEAN_ELEMENT_THEORY":"SGP4","FILE":"3344863","EPHEMERIS_TYPE":"0","DECAY_DATE":null,"NORAD_CAT_ID":"46790","RA_OF_ASC_NODE":"62.6645","TLE_LINE2":"2 46790  53.0562  62.6645 0002032  55.3254 304.7927 15.06393989 75714","PERIAPSIS":"545.825","SITE":"AFETR","CLASSIFICATION_TYPE":"U","LAUNCH_DATE":"2020-10-24","EPOCH":"2022-03-04T16:59:16.693440","CENTER_NAME":"EARTH","MEAN_ANOMALY":"304.7927","OBJECT_ID":"2020-074BD","OBJECT_NAME":"STARLINK-1931","ECCENTRICITY":"0.00020320","PERIOD":"95.593"},{"ELEMENT_SET_NO":"999","MEAN_MOTION_DOT":"0.00001452","GP_ID":"197903985","TLE_LINE1":"1 46791U 20074BE  22063.72256782  .00001452  00000-0  11638-3 0  9996","TIME_SYSTEM":"UTC","MEAN_MOTION":"15.06400821","OBJECT_TYPE":"PAYLOAD","RCS_SIZE":"LARGE","REV_AT_EPOCH":"7572","BSTAR":"0.00011638000000","REF_FRAME":"TEME","APOAPSIS":"548.439","MEAN_ELEMENT_THEORY":"SGP4","FILE":"3344863","ARG_OF_PERICENTER":"56.1505","SEMIMAJOR_AXIS":"6925.346","INCLINATION":"53.0539","COUNTRY_CODE":"US","MEAN_MOTION_DDOT":"0.0000000000000","NORAD_CAT_ID":"46791","RA_OF_ASC_NODE":"62.5912","TLE_LINE2":"2 46791  53.0539  62.5912 0001773  56.1505 303.9652 15.06400821 75725","EPHEMERIS_TYPE":"0","DECAY_DATE":null,"MEAN_ANOMALY":"303.9652","CENTER_NAME":"EARTH","OBJECT_ID":"2020-074BE","OBJECT_NAME":"STARLINK-1933","ECCENTRICITY":"0.00017730","PERIOD":"95.592","PERIAPSIS":"545.983","SITE":"AFETR","CLASSIFICATION_TYPE":"U","LAUNCH_DATE":"2020-10-24","EPOCH":"2022-03-04T17:20:29.859648"},{"APOAPSIS":"548.802","MEAN_ELEMENT_THEORY":"SGP4","REF_FRAME":"TEME","BSTAR":"0.00013084000000","FILE":"3344863","REV_AT_EPOCH":"7585","SEMIMAJOR_AXIS":"6925.336","MEAN_MOTION_DDOT":"0.0000000000000","INCLINATION":"53.0537","COUNTRY_CODE":"US","ARG_OF_PERICENTER":"46.9916","GP_ID":"197905236","ELEMENT_SET_NO":"999","MEAN_MOTION_DOT":"0.00001668","RCS_SIZE":"LARGE","TLE_LINE1":"1 46792U 20074BF  22063.68294045  .00001668  00000-0  13084-3 0  9992","TIME_SYSTEM":"UTC","OBJECT_TYPE":"PAYLOAD","MEAN_MOTION":"15.06404046","PERIOD":"95.592","ECCENTRICITY":"0.00023110","OBJECT_ID":"2020-074BF","MEAN_ANOMALY":"313.1267","OBJECT_NAME":"STARLINK-1934","CENTER_NAME":"EARTH","LAUNCH_DATE":"2020-10-24","EPOCH":"2022-03-04T16:23:26.054880","PERIAPSIS":"545.601","CLASSIFICATION_TYPE":"U","SITE":"AFETR","RA_OF_ASC_NODE":"52.7693","TLE_LINE2":"2 46792  53.0537  52.7693 0002311  46.9916 313.1267 15.06404046 75855","NORAD_CAT_ID":"46792","DECAY_DATE":null,"EPHEMERIS_TYPE":"0"},{"BSTAR":"0.00023686000000","APOAPSIS":"548.706","REF_FRAME":"TEME","MEAN_ELEMENT_THEORY":"SGP4","FILE":"3344863","REV_AT_EPOCH":"7571","SEMIMAJOR_AXIS":"6925.344","INCLINATION":"53.0550","COUNTRY_CODE":"US","MEAN_MOTION_DDOT":"0.0000000000000","ARG_OF_PERICENTER":"52.4353","GP_ID":"197905479","ELEMENT_SET_NO":"999","MEAN_MOTION_DOT":"0.00003248","RCS_SIZE":"LARGE","TIME_SYSTEM":"UTC","TLE_LINE1":"1 46793U 20074BG  22063.71151210  .00003248  00000-0  23686-3 0  9998","MEAN_MOTION":"15.06401535","OBJECT_TYPE":"PAYLOAD","PERIOD":"95.592","OBJECT_ID":"2020-074BG","MEAN_ANOMALY":"307.6832","OBJECT_NAME":"STARLINK-1941","CENTER_NAME":"EARTH","ECCENTRICITY":"0.00021620","LAUNCH_DATE":"2020-10-24","EPOCH":"2022-03-04T17:04:34.645440","PERIAPSIS":"545.712","SITE":"AFETR","CLASSIFICATION_TYPE":"U","RA_OF_ASC_NODE":"62.6530","TLE_LINE2":"2 46793  53.0550  62.6530 0002162  52.4353 307.6832 15.06401535 75713","NORAD_CAT_ID":"46793","DECAY_DATE":null,"EPHEMERIS_TYPE":"0"},{"GP_ID":"197904235","MEAN_MOTION_DOT":"0.00001864","ELEMENT_SET_NO":"999","RCS_SIZE":"LARGE","OBJECT_TYPE":"PAYLOAD","MEAN_MOTION":"15.06397890","TIME_SYSTEM":"UTC","TLE_LINE1":"1 46794U 20074BH  22063.71888897  .00001864  00000-0  14400-3 0  9993","FILE":"3344863","BSTAR":"0.00014400000000","REF_FRAME":"TEME","APOAPSIS":"548.548","MEAN_ELEMENT_THEORY":"SGP4","REV_AT_EPOCH":"7572","INCLINATION":"53.0542","COUNTRY_CODE":"US","MEAN_MOTION_DDOT":"0.0000000000000","SEMIMAJOR_AXIS":"6925.355","ARG_OF_PERICENTER":"51.7435","TLE_LINE2":"2 46794  53.0542  62.6215 0001918  51.7435 308.3726 15.06397890 75725","RA_OF_ASC_NODE":"62.6215","NORAD_CAT_ID":"46794","DECAY_DATE":null,"EPHEMERIS_TYPE":"0","PERIOD":"95.592","OBJECT_ID":"2020-074BH","MEAN_ANOMALY":"308.3726","OBJECT_NAME":"STARLINK-1942","CENTER_NAME":"EARTH","ECCENTRICITY":"0.00019180","EPOCH":"2022-03-04T17:15:12.007008","LAUNCH_DATE":"2020-10-24","SITE":"AFETR","CLASSIFICATION_TYPE":"U","PERIAPSIS":"545.892"},{"EPHEMERIS_TYPE":"0","DECAY_DATE":null,"NORAD_CAT_ID":"46796","RA_OF_ASC_NODE":"52.7337","TLE_LINE2":"2 46796  53.0550  52.7337 0002034  46.6229 313.4929 15.06413390 75855","PERIAPSIS":"545.764","SITE":"AFETR","CLASSIFICATION_TYPE":"U","LAUNCH_DATE":"2020-10-24","EPOCH":"2022-03-04T16:39:21.973248","OBJECT_ID":"2020-074BK","MEAN_ANOMALY":"313.4929","OBJECT_NAME":"STARLINK-1944","CENTER_NAME":"EARTH","ECCENTRICITY":"0.00020340","PERIOD":"95.591","TLE_LINE1":"1 46796U 20074BK  22063.69400432  .00007416  00000-0  51608-3 0  9997","TIME_SYSTEM":"UTC","MEAN_MOTION":"15.06413390","OBJECT_TYPE":"PAYLOAD","RCS_SIZE":"LARGE","ELEMENT_SET_NO":"999","MEAN_MOTION_DOT":"0.00007416","GP_ID":"197904485","ARG_OF_PERICENTER":"46.6229","SEMIMAJOR_AXIS":"6925.308","COUNTRY_CODE":"US","INCLINATION":"53.0550","MEAN_MOTION_DDOT":"0.0000000000000","REV_AT_EPOCH":"7585","BSTAR":"0.00051608000000","APOAPSIS":"548.581","MEAN_ELEMENT_THEORY":"SGP4","REF_FRAME":"TEME","FILE":"3344863"},{"MEAN_MOTION_DOT":"0.00009737","ELEMENT_SET_NO":"999","GP_ID":"197904737","MEAN_MOTION":"15.72154141","OBJECT_TYPE":"PAYLOAD","TIME_SYSTEM":"UTC","TLE_LINE1":"1 46797U 20074BL  22063.78451472  .00009737  00000-0  76912-4 0  9992","RCS_SIZE":"LARGE","REV_AT_EPOCH":"7696","FILE":"3344863","APOAPSIS":"358.569","REF_FRAME":"TEME","MEAN_ELEMENT_THEORY":"SGP4","BSTAR":"0.00007691200000","ARG_OF_PERICENTER":"280.5638","MEAN_MOTION_DDOT":"0.0000000000000","COUNTRY_CODE":"US","INCLINATION":"53.0529","SEMIMAJOR_AXIS":"6730.879","NORAD_CAT_ID":"46797","TLE_LINE2":"2 46797  53.0529 335.0296 0008655 280.5638  79.4404 15.72154141 76960","RA_OF_ASC_NODE":"335.0296","EPHEMERIS_TYPE":"0","DECAY_DATE":null,"ECCENTRICITY":"0.00086550","MEAN_ANOMALY":"79.4404","CENTER_NAME":"EARTH","OBJECT_ID":"2020-074BL","OBJECT_NAME":"STARLINK-1947","PERIOD":"91.594","CLASSIFICATION_TYPE":"U","SITE":"AFETR","PERIAPSIS":"346.918","EPOCH":"2022-03-04T18:49:42.071808","LAUNCH_DATE":"2020-10-24"},{"PERIOD":"95.591","ECCENTRICITY":"0.00017450","OBJECT_ID":"2020-074BM","MEAN_ANOMALY":"301.2383","OBJECT_NAME":"STARLINK-1948","CENTER_NAME":"EARTH","EPOCH":"2022-03-04T17:25:07.241664","LAUNCH_DATE":"2020-10-24","CLASSIFICATION_TYPE":"U","SITE":"AFETR","PERIAPSIS":"545.973","TLE_LINE2":"2 46798  53.0538  77.5913 0001745  58.8777 301.2383 15.06410495 75514","RA_OF_ASC_NODE":"77.5913","NORAD_CAT_ID":"46798","DECAY_DATE":null,"EPHEMERIS_TYPE":"0","FILE":"3344863","APOAPSIS":"548.390","REF_FRAME":"TEME","MEAN_ELEMENT_THEORY":"SGP4","BSTAR":"0.00030462000000","REV_AT_EPOCH":"7551","MEAN_MOTION_DDOT":"0.0000000000000","INCLINATION":"53.0538","COUNTRY_CODE":"US","SEMIMAJOR_AXIS":"6925.316","ARG_OF_PERICENTER":"58.8777","GP_ID":"197904980","MEAN_MOTION_DOT":"0.00004260","ELEMENT_SET_NO":"999","RCS_SIZE":"LARGE","MEAN_MOTION":"15.06410495","OBJECT_TYPE":"PAYLOAD","TIME_SYSTEM":"UTC","TLE_LINE1":"1 46798U 20074BM  22063.72577826  .00004260  00000-0  30462-3 0  9994"},{"EPHEMERIS_TYPE":"0","DECAY_DATE":null,"NORAD_CAT_ID":"47122","RA_OF_ASC_NODE":"44.2698","TLE_LINE2":"2 47122  53.0553  44.2698 0001427  65.3124 294.8014 15.06393799 70824","PERIAPSIS":"546.244","SITE":"AFETR","CLASSIFICATION_TYPE":"U","LAUNCH_DATE":"2020-11-25","EPOCH":"2022-03-04T08:21:45.901152","CENTER_NAME":"EARTH","MEAN_ANOMALY":"294.8014","OBJECT_ID":"2020-088A","OBJECT_NAME":"STARLINK-1777","ECCENTRICITY":"0.00014270","PERIOD":"95.593","TLE_LINE1":"1 47122U 20088A   22063.34844793 -.00001093  00000-0 -54507-4 0  9999","TIME_SYSTEM":"UTC","MEAN_MOTION":"15.06393799","OBJECT_TYPE":"PAYLOAD","RCS_SIZE":"LARGE","ELEMENT_SET_NO":"999","MEAN_MOTION_DOT":"-0.00001093","GP_ID":"197843486","ARG_OF_PERICENTER":"65.3124","SEMIMAJOR_AXIS":"6925.368","INCLINATION":"53.0553","COUNTRY_CODE":"US","MEAN_MOTION_DDOT":"0.0000000000000","REV_AT_EPOCH":"7082","BSTAR":"-0.00005450700000","REF_FRAME":"TEME","APOAPSIS":"548.221","MEAN_ELEMENT_THEORY":"SGP4","FILE":"3344357"},{"ELEMENT_SET_NO":"999","MEAN_MOTION_DOT":"0.00006147","GP_ID":"197904523","TIME_SYSTEM":"UTC","TLE_LINE1":"1 47124U 20088C   22063.66589239  .00006147  00000-0  43137-3 0  9996","MEAN_MOTION":"15.06386774","OBJECT_TYPE":"PAYLOAD","RCS_SIZE":"LARGE","REV_AT_EPOCH":"7080","APOAPSIS":"548.354","REF_FRAME":"TEME","MEAN_ELEMENT_THEORY":"SGP4","BSTAR":"0.00043137000000","FILE":"3344863","ARG_OF_PERICENTER":"55.1795","SEMIMAJOR_AXIS":"6925.389","MEAN_MOTION_DDOT":"0.0000000000000","COUNTRY_CODE":"US","INCLINATION":"53.0552","NORAD_CAT_ID":"47124","RA_OF_ASC_NODE":"47.8575","TLE_LINE2":"2 47124  53.0552  47.8575 0001588  55.1795 304.9343 15.06386774 70808","EPHEMERIS_TYPE":"0","DECAY_DATE":null,"ECCENTRICITY":"0.00015880","MEAN_ANOMALY":"304.9343","OBJECT_NAME":"STARLINK-1785","CENTER_NAME":"EARTH","OBJECT_ID":"2020-088C","PERIOD":"95.593","PERIAPSIS":"546.154","CLASSIFICATION_TYPE":"U","SITE":"AFETR","LAUNCH_DATE":"2020-11-25","EPOCH":"2022-03-04T15:58:53.102496"}];
